     2.100          NAVIGATION                              RINEX VERSION / TYPE
fic2rin                                 09/13/2013 00:49:06 PGM / RUN BY / DATE
                                                            END OF HEADER
 9 13  9 12  6  0  0.0  .267856754363D-03  .261479726760D-11  .000000000000D+00
     .100000000000D+02  .193750000000D+02  .413195782691D-08  .186439595096D+01
     .560656189919D-06  .169019779423D-01  .324100255966D-05  .515372189331D+04
     .367200000000D+06  .180676579475D-06 -.206139491040D+00 -.145286321640D-06
     .983784803043D+00  .320750000000D+03  .172442679158D+01 -.795354558281D-08
    -.181078971237D-09  .100000000000D+01  .175700000000D+04  .000000000000D+00
     .240000000000D+01  .000000000000D+00 -.558793544769D-08  .100000000000D+02
     .360006000000D+06  .400000000000D+01
10 13  9 12  6  0  0.0 -.941478647292D-04 -.136424205266D-11  .000000000000D+00
     .650000000000D+02  .887500000000D+01  .495913513931D-08 -.170621486151D+01
     .320374965668D-06  .127492265310D-01  .902637839317D-05  .515365641212D+04
     .367200000000D+06  .184401869774D-06 -.228388171076D+01 -.171363353729D-06
     .943108795947D+00  .190406250000D+03  .814031367422D+00 -.805140680198D-08
    -.165006873199D-09  .100000000000D+01  .175700000000D+04  .000000000000D+00
     .485000000000D+01  .000000000000D+00 -.232830643654D-08  .650000000000D+02
     .360006000000D+06  .400000000000D+01
11 13  9 12  6  0  0.0 -.418950337917D-03 -.352429196937D-11  .000000000000D+00
     .970000000000D+02 -.668750000000D+01  .649277044995D-08  .914902971735D+00
    -.378116965294D-06  .145410785917D-01  .703521072865D-05  .515368348885D+04
     .367200000000D+06 -.188127160072D-06  .263410964151D+01 -.149011611938D-07
     .889556159047D+00  .208906250000D+03  .121019460841D+01 -.922574143202D-08
     .140720147273D-09  .100000000000D+01  .175700000000D+04  .000000000000D+00
     .340000000000D+01  .000000000000D+00 -.116415321827D-07  .970000000000D+02
     .360006000000D+06  .400000000000D+01
12 13  9 12  6  0  0.0  .155868474394D-03  .216004991671D-11  .000000000000D+00
     .360000000000D+02 -.601250000000D+02  .392052044827D-08  .374211063873D+00
    -.322051346302D-05  .451972475275D-02  .742077827454D-05  .515377312088D+04
     .367200000000D+06  .372529029846D-07  .875764361341D+00  .651925802231D-07
     .985162093601D+00  .247875000000D+03  .335845570573D+00 -.790997233924D-08
    -.128576784311D-09  .100000000000D+01  .175700000000D+04  .000000000000D+00
     .240000000000D+01  .000000000000D+00 -.116415321827D-07  .360000000000D+02
     .360006000000D+06  .400000000000D+01
13 13  9 12  6  0  0.0  .807978212833D-04 -.375166564481D-11  .000000000000D+00
     .590000000000D+02  .988437500000D+02  .418195990970D-08  .301592532368D+01
     .516697764397D-05  .503065926023D-02  .814534723759D-05  .515370873642D+04
     .367200000000D+06  .633299350739D-07 -.114992767931D+01  .949949026108D-07
     .980099074569D+00  .232812500000D+03  .219859638676D+01 -.789390024120D-08
     .985755346381D-10  .100000000000D+01  .175700000000D+04  .000000000000D+00
     .240000000000D+01  .000000000000D+00 -.107102096081D-07  .590000000000D+02
     .360006000000D+06  .400000000000D+01
15 13  9 12  6  0  0.0 -.136686954647D-03 -.181898940355D-11  .000000000000D+00
     .740000000000D+02  .795937500000D+02  .506521098637D-08  .276780723012D+01
     .423379242420D-05  .552922941279D-02  .771321356297D-05  .515356193161D+04
     .367200000000D+06 -.132247805595D-06 -.128345223250D+01 -.372529029846D-07
     .939311091334D+00  .220062500000D+03  .154098521039D+00 -.825927260328D-08
     .564309220030D-10  .100000000000D+01  .175700000000D+04  .000000000000D+00
     .240000000000D+01  .000000000000D+00 -.977888703346D-08  .740000000000D+02
     .360006000000D+06  .400000000000D+01
16 13  9 12  6  0  0.0 -.246883369982D-03  .795807864051D-12  .000000000000D+00
     .660000000000D+02 -.803125000000D+02  .379515808357D-08 -.180615513706D+01
    -.416301190853D-05  .705561076757D-02  .843778252602D-05  .515371621132D+04
     .367200000000D+06  .558793544769D-08  .894198315566D+00 -.521540641785D-07
     .985817640359D+00  .229562500000D+03  .139135771518D+00 -.782818321811D-08
    -.535736601294D-10  .100000000000D+01  .175700000000D+04  .000000000000D+00
     .240000000000D+01  .000000000000D+00 -.977888703346D-08  .660000000000D+02
     .360006000000D+06  .400000000000D+01
17 13  9 12  6  0  0.0 -.204998068511D-04 -.363797880709D-11  .000000000000D+00
     .660000000000D+02 -.359687500000D+02  .422660462648D-08 -.276299611388D+01
    -.175088644028D-05  .850825395901D-02  .892952084541D-05  .515367873383D+04
     .367200000000D+06  .800937414169D-07  .192991397623D+01 -.838190317154D-07
     .966115649223D+00  .209000000000D+03 -.219218758697D+01 -.771389274317D-08
     .387516141603D-09  .100000000000D+01  .175700000000D+04  .000000000000D+00
     .240000000000D+01  .000000000000D+00 -.102445483208D-07  .660000000000D+02
     .360006000000D+06  .400000000000D+01
18 13  9 12  6  0  0.0  .273656100035D-03  .204636307899D-11  .000000000000D+00
     .740000000000D+02  .180312500000D+02  .533629370662D-08 -.125516488572D+01
     .118277966976D-05  .145955537446D-01  .893324613571D-05  .515363393974D+04
     .367200000000D+06  .240281224251D-06 -.230242189771D+01  .337138772011D-06
     .926889739192D+00  .187406250000D+03 -.207854639164D+01 -.837356307823D-08
    -.193222334200D-09  .100000000000D+01  .175700000000D+04  .000000000000D+00
     .240000000000D+01  .000000000000D+00 -.107102096081D-07  .740000000000D+02
     .360006000000D+06  .400000000000D+01
19 13  9 12  6  0  0.0 -.403532292694D-03 -.284217094304D-11  .000000000000D+00
     .460000000000D+02 -.259687500000D+02  .437625371710D-08  .269062690970D+01
    -.135041773319D-05  .952982797753D-02  .948831439018D-05  .515373978233D+04
     .367200000000D+06 -.106170773506D-06  .198155966138D+01 -.298023223877D-07
     .963335247603D+00  .198031250000D+03  .377993141594D+00 -.786854204207D-08
     .401445293236D-09  .100000000000D+01  .175700000000D+04  .000000000000D+00
     .240000000000D+01  .000000000000D+00 -.144354999065D-07  .460000000000D+02
     .360006000000D+06  .400000000000D+01
21 13  9 12  6  0  0.0 -.318264588714D-03 -.193267624127D-11  .000000000000D+00
     .960000000000D+02 -.968750000000D+01  .554237371925D-08 -.232361773886D+00
    -.318512320518D-06  .205388338072D-01  .686943531036D-05  .515362676620D+04
     .367200000000D+06 -.689178705215D-07  .293419664612D+01  .301748514175D-06
     .932116281745D+00  .236468750000D+03 -.210638802386D+01 -.889108463508D-08
     .118219210019D-09  .100000000000D+01  .175700000000D+04  .000000000000D+00
     .240000000000D+01  .000000000000D+00 -.111758708954D-07  .960000000000D+02
     .360006000000D+06  .400000000000D+01
22 13  9 12  6  0  0.0  .184446573257D-03  .193267624127D-11  .000000000000D+00
     .164000000000D+03  .214687500000D+02  .535736601294D-08 -.183789916470D+01
     .108219683170D-05  .679378060158D-02  .915862619877D-05  .515364716148D+04
     .367200000000D+06  .141561031342D-06 -.230003033386D+01  .502914190292D-07
     .924643807377D+00  .180281250000D+03 -.203219863360D+01 -.828177354054D-08
    -.153934983439D-09  .100000000000D+01  .175700000000D+04  .000000000000D+00
     .485000000000D+01  .000000000000D+00 -.172294676304D-07  .164000000000D+03
     .360006000000D+06  .400000000000D+01
23 13  9 12  6  0  0.0  .489624217153D-04 -.352429196937D-11  .000000000000D+00
     .250000000000D+02  .104375000000D+03  .478019911448D-08  .225188176901D+01
     .538490712643D-05  .887468678411D-02  .863894820213D-05  .515366481590D+04
     .367200000000D+06 -.204890966415D-06 -.124065038307D+01  .447034835815D-07
     .954297499167D+00  .211375000000D+03 -.282599286860D+01 -.818462663684D-08
     .532165023952D-10  .100000000000D+01  .175700000000D+04  .000000000000D+00
     .240000000000D+01  .000000000000D+00 -.200234353542D-07  .250000000000D+02
     .360006000000D+06  .400000000000D+01
24 13  9 12  6  0  0.0 -.135959126055D-04 -.682121026330D-12  .000000000000D+00
     .510000000000D+02  .996875000000D+01  .479877131666D-08  .159785118412D+01
     .597909092903D-06  .102977291681D-02  .379234552383D-05  .515366352654D+04
     .367200000000D+06  .949949026108D-07 -.214017353173D+00  .968575477600D-07
     .958654303274D+00  .302687500000D+03  .214673720628D+00 -.846106672311D-08
    -.789318592573D-10  .100000000000D+01  .175700000000D+04  .000000000000D+00
     .240000000000D+01  .000000000000D+00  .325962901115D-08  .510000000000D+02
     .360006000000D+06  .400000000000D+01
25 13  9 12  6  0  0.0  .146322883666D-03  .420641299570D-11  .000000000000D+00
     .104000000000D+03 -.663125000000D+02  .418338854064D-08 -.613668063589D+00
    -.360421836376D-05  .273931457195D-02  .738911330700D-05  .515372985268D+04
     .367200000000D+06 -.186264514923D-08  .836287341422D+00  .633299350739D-07
     .973984419321D+00  .242687500000D+03  .745869895995D+00 -.802962018020D-08
    -.168935608275D-09  .100000000000D+01  .175700000000D+04  .000000000000D+00
     .240000000000D+01  .000000000000D+00  .558793544769D-08  .104000000000D+03
     .360006000000D+06  .400000000000D+01
26 13  9 12  6  0  0.0  .186059623957D-03  .181898940355D-10  .000000000000D+00
     .900000000000D+02  .760000000000D+02  .416195907659D-08  .226014706305D+01
     .370107591152D-05  .210571860662D-01  .807456672192D-05  .515368682671D+04
     .367200000000D+06  .154599547386D-06 -.115771956575D+01 -.357627868652D-06
     .977534620138D+00  .227875000000D+03  .125001210350D+01 -.760388816103D-08
     .553594488004D-10  .100000000000D+01  .175700000000D+04  .000000000000D+00
     .240000000000D+01  .000000000000D+00 -.558793544769D-08  .900000000000D+02
     .360006000000D+06  .400000000000D+01
